HST                     
1 20580U 90037B   25111.11091026  .00009421  00000+0  36328-3 0  9994
2 20580  28.4678  71.6070 0001994 178.2976 181.7625 15.24556006723967
POLAR                   
1 23802U 96013A   25110.96564149  .00000195  00000+0  00000+0 0  9990
2 23802  79.3981 231.6339 6078698 223.3310  68.4329  1.29846471139376
SWAS                    
1 25560U 98071A   25111.50854744  .00008659  00000+0  60482-3 0  9990
2 25560  69.8970 231.6054 0007443 210.2327 149.8406 15.05624873433716
CXO                     
1 25867U 99040B   25113.90655150  .00000969  00000+0  00000+0 0  9995
2 25867  48.2708 132.4403 8506107 308.4906   0.8416  0.37805197 15738
XMM-NEWTON              
1 25989U 99066A   25113.53020583  .00000106  00000+0  00000+0 0  9996
2 25989  66.5013 288.5338 4885744  72.1985   0.0242  0.50130939 20904
TERRA                   
1 25994U 99068A   25111.60107778  .00000955  00000+0  20556-3 0  9996
2 25994  98.0026 171.4758 0003644 110.1989  49.7183 14.60638142348052
CLUSTER II-FM7 (SAMBA)  
1 26410U 00041A   25113.51171733  .00000282  00000+0  00000+0 0  9998
2 26410 143.4367   8.7726 8257782 224.0723   1.0582  0.44775557 18427
CLUSTER II-FM5 (RUMBA)  
1 26463U 00045A   25111.88898600  .00009979  00000+0  00000+0 0  9999
2 26463 153.1950  65.4857 9045013 283.4433   0.8756  0.42903029 18308
CLUSTER II-FM8 (TANGO)  
1 26464U 00045B   25112.39863421  .00000337  00000+0  00000+0 0  9999
2 26464 143.6775   9.0722 8260437 224.2391   0.7048  0.44423341 66095
ODIN                    
1 26702U 01007A   25111.48641805  .00026705  00000+0  71815-3 0  9995
2 26702  97.4523 134.1578 0003963 251.6698 108.4116 15.37858110324038
TIMED                   
1 26998U 01055B   25111.16416706  .00002686  00000+0  25689-3 0  9990
2 26998  74.0718   3.7621 0002097 270.2656  89.8288 14.93782140267779
CORIOLIS                
1 27640U 03001A   25111.50934516  .00000278  00000+0  15174-3 0  9993
2 27640  98.7146 119.8738 0013806 352.4062   7.6903 14.19769587154386
SORCE                   
1 27651U 03004A   25111.52093723  .00005858  00000+0  47112-3 0  9992
2 27651  39.9906 140.9540 0019475 259.9192  99.9404 15.00110904208483
MOST                    
1 27843U 03031D   25111.51629546  .00000210  00000+0  11645-3 0  9991
2 27843  98.7075 120.1212 0010524  35.6522 324.5356 14.21192561130819
SCISAT 1                
1 27858U 03036A   25111.52458619  .00001562  00000+0  20805-3 0  9993
2 27858  73.9290 288.6041 0006365  90.6142 269.5763 14.80614452169024
SWIFT                   
1 28485U 04047A   25111.02871422  .00025192  00000+0  67662-3 0  9996
2 28485  20.5539 111.6439 0005625 339.9759  20.0459 15.35927809121284
CALIPSO                 
1 29108U 06016B   25111.59492054  .00002551  00000+0  45339-3 0  9990
2 29108  98.4470 108.1968 0001725 104.0343 256.1053 14.68069385 11179
HINODE (SOLAR-B)        
1 29479U 06041A   25111.47310995  .00001502  00000+0  27120-3 0  9992
2 29479  98.0752 128.5780 0017669 180.4961 179.6229 14.67799826992985
SHIJIAN-6 02A (SJ-6 02A)
1 29505U 06046A   25111.57290204  .00011198  00000+0  67885-3 0  9992
2 29505  97.6876 145.0365 0004833 135.9877 224.1738 15.10723253  8484
SHIJIAN-6 02B (SJ-6 02B)
1 29506U 06046B   25111.55290764  .00003801  00000+0  31310-3 0  9998
2 29506  97.7100 139.5540 0003328  78.4453 281.7143 14.99667945  7511
FGRST (GLAST)           
1 33053U 08029A   25111.63269015  .00006276  00000+0  26155-3 0  9997
2 33053  25.5818 244.4394 0009607  48.2776 311.8582 15.20851740931522
SDO                     
1 36395U 10005A   25111.40581095 -.00000042  00000+0  00000+0 0  9999
2 36395  33.7673  92.7953 0000602 217.5869 303.7813  1.00273164 55838
CRYOSAT 2               
1 36508U 10013A   25111.63521041  .00000329  00000+0  80994-4 0  9996
2 36508  92.0145 175.5250 0001806  66.6178 293.5219 14.51916756796917
X-SAT                   
1 37389U 11015C   25111.47403358  .00000308  00000+0  14862-3 0  9996
2 37389  98.3109 104.7749 0014899 137.6534 222.5799 14.25018489727615
GCOM-W1 (SHIZUKU)       
1 38337U 12025A   25111.41175213  .00001272  00000+0  29232-3 0  9990
2 38337  98.1983  53.0686 0001397  77.6853  34.4904 14.57101630687618
NUSTAR                  
1 38358U 12031A   25111.58334491  .00006436  00000+0  40339-3 0  9991
2 38358   6.0266 302.8288 0009345 336.7139 241.2020 15.03197495  2729
NEOSSAT                 
1 39089U 13009D   25111.50211073  .00000422  00000+0  16111-3 0  9991
2 39089  98.4077 296.9052 0012138  66.4666 293.7794 14.35582355636230
BRITE-AUSTRIA           
1 39091U 13009F   25111.49836183  .00000475  00000+0  17719-3 0  9990
2 39091  98.3887 296.7434 0011291  62.9685 297.2652 14.36277808636512
IRIS                    
1 39197U 13033A   25111.53769474  .00002474  00000+0  29946-3 0  9993
2 39197  97.9553 306.9767 0023692 256.0404 103.8176 14.84403859637794
HISAKI (SPRINT-A)       
1 39253U 13049A   25111.55419718  .00000176  00000+0  14634-3 0  9993
2 39253  29.7191 203.5171 0136581 198.7920 160.7574 13.55483962574172
CASSIOPE                
1 39265U 13055A   25111.55439753  .00040906 -44858-6  65984-3 0  9990
2 39265  80.9449 206.1016 0400588  11.7662 349.2575 14.95501096604066
STSAT-3                 
1 39422U 13066G   25111.54998905  .00007094  00000+0  58179-3 0  9997
2 39422  97.5624  86.1033 0022109  48.7149 311.5974 14.99346383620955
SWARM B                 
1 39451U 13067A   25111.54400189  .00006558  00000+0  26292-3 0  9997
2 39451  87.7405 110.0484 0002998  95.9805 264.1784 15.24840573618913
SWARM A                 
1 39452U 13067B   25111.55990107  .00015094  00000+0  36060-3 0  9992
2 39452  87.3441 211.3258 0002522 103.5797 256.5740 15.41383895641116
SWARM C                 
1 39453U 13067C   25111.55980035  .00014868  00000+0  35519-3 0  9998
2 39453  87.3441 209.9174 0002478 103.6144 256.5388 15.41382912641076
BRITE-CA1 (TORONTO)     
1 40020U 14033L   25111.41115550  .00002818  00000+0  44021-3 0  9991
2 40020  97.9171 244.9276 0080371 186.0291 173.9957 14.71453742580161
OCO 2                   
1 40059U 14035A   25111.59307766  .00001176  00000+0  27099-3 0  9998
2 40059  98.1979  54.0013 0001388  80.3776 279.7579 14.57098216574653
BRITE-PL2 (HEWELIUSZ)   
1 40119U 14049B   25111.27528044  .00003655  00000+0  36269-3 0  9992
2 40119  97.8842 216.4271 0015781  70.4882 289.8039 14.92294853578476
MMS 1                   
1 40482U 15011A   25111.58334491 -.00000739  00000+0  00000+0 0  9991
2 40482  62.7287 356.7863 8772296 158.1273  45.4221  0.28426537  1307
MMS 2                   
1 40483U 15011B   25111.58334491 -.00000739  00000+0  00000+0 0  9992
2 40483  62.6936 356.8041 8770875 158.1121  45.3895  0.28425711  1365
MMS 3                   
1 40484U 15011C   25111.58334491 -.00000739  00000+0  00000+0 0  9993
2 40484  62.7275 356.7898 8769986 158.1210  45.3939  0.28425766  1361
MMS 4                   
1 40485U 15011D   25111.58334491 -.00000739  00000+0  00000+0 0  9994
2 40485  62.6996 356.8010 8771589 158.1091  35.9498  0.28423387  1358
ASTROSAT                
1 40930U 15052A   25111.38554879  .00003093  00000+0  30387-3 0  9996
2 40930   5.9976 308.6627 0007650 140.3454 219.7233 14.81276237517152
DAMPE                   
1 41173U 15078A   25111.53421027  .00002702  00000+0  97704-4 0  9992
2 41173  97.4483 110.6192 0013862 126.5239 233.7280 15.29248178520077
PISAT                   
1 41784U 16059B   25111.47912106  .00002280  00000+0  40490-3 0  9996
2 41784  97.8188 125.5260 0031201 111.0635 249.3912 14.67788292457855
HXMT (HUIYAN)           
1 42758U 17034A   25111.55156382  .00011143  00000+0  61927-3 0  9993
2 42758  43.0157   1.3751 0035757   0.8349 359.2552 15.13188773433674
FLYING LAPTOP           
1 42831U 17042G   25111.57716838  .00003403  00000+0  28884-3 0  9999
2 42831  97.4034 281.6428 0013039 113.7544 246.5049 14.98477921423268
ZHANGHENG 1 (CSES)      
1 43194U 18015C   25111.58817653  .00018023  00000+0  80837-3 0  9991
2 43194  97.6432 265.0141 0008886 295.5018  64.5298 15.21232910400568
SALSAT                  
1 46495U 20068K   25111.45100652  .00011833  00000+0  52229-3 0  9995
2 46495  97.8579  87.2495 0010793 343.8240  16.2649 15.21873979251057
IXPE                    
1 49954U 21121A   25111.58334491  .00008001  00000+0  48903-3 0  9990
2 49954   0.2291 253.0751 0007935 200.6472 264.9800 15.04891210  5617
